{"type": "FeatureCollection", "features": [ {"type": "Feature", "properties": {"norad_id": 66580, "name": "STARLINK-35872", "group": "last-30-days", "lat": 37.78240193739548, "lon": -151.71178279097808, "alt_km": 410.83346817449365, "timestamp": "2025-12-18T23:35:47.780463+00:00", "meta": {"OBJECT_NAME": "STARLINK-35872", "OBJECT_ID": "2025-268Z", "EPOCH": "2025-12-18T13:49:24.176928", "MEAN_MOTION": 15.50602533, "ECCENTRICITY": 0.00032153, "INCLINATION": 43.0017, "RA_OF_ASC_NODE": 86.9583, "ARG_OF_PERICENTER": 280.9479, "MEAN_ANOMALY": 79.1019, "EPHEMERIS_TYPE": 0, "CLASSIFICATION_TYPE": "U", "NORAD_CAT_ID": 66580, "ELEMENT_SET_NO": 999, "REV_AT_EPOCH": 553, "BSTAR": 0.0016927812, "MEAN_MOTION_DOT": 0.00100343, "MEAN_MOTION_DDOT": 0}, "tle": {"line1": "1 66580U 25268Z   25352.57597427  .00100343  00000+0  16928-2 0  9999", "line2": "2 66580  43.0017  86.9583 0003215 280.9479  79.1019 15.50602533  5531"}}, "geometry": {"type": "Point", "coordinates": [-151.71178279097808, 37.78240193739548]}}, {"type": "Feature", "properties": {"norad_id": 66581, "name": "STARLINK-35744", "group": "last-30-days", "lat": 37.02108203406678, "lon": -149.4526053387559, "alt_km": 409.47912610940057, "timestamp": "2025-12-18T23:35:47.780475+00:00", "meta": {"OBJECT_NAME": "STARLINK-35744", "OBJECT_ID": "2025-268AA", "EPOCH": "2025-12-18T13:48:54.537408", "MEAN_MOTION": 15.50621121, "ECCENTRICITY": 0.00010911, "INCLINATION": 43.0015, "RA_OF_ASC_NODE": 86.9541, "ARG_OF_PERICENTER": 264.1804, "MEAN_ANOMALY": 95.8932, "EPHEMERIS_TYPE": 0, "CLASSIFICATION_TYPE": "U", "NORAD_CAT_ID": 66581, "ELEMENT_SET_NO": 999, "REV_AT_EPOCH": 553, "BSTAR": 0.0011663597, "MEAN_MOTION_DOT": 0.00068789, "MEAN_MOTION_DDOT": 0}, "tle": {"line1": "1 66581U 25268AA  25352.57563122  .00068789  00000+0  11664-2 0  9994", "line2": "2 66581  43.0015  86.9541 0001091 264.1804  95.8932 15.50621121  5533"}}, "geometry": {"type": "Point", "coordinates": [-149.4526053387559, 37.02108203406678]}}, {"type": "Feature", "properties": {"norad_id": 66582, "name": "STARLINK-35746", "group": "last-30-days", "lat": 36.25885999937854, "lon": -147.3459138801427, "alt_km": 410.8381443868693, "timestamp": "2025-12-18T23:35:47.780485+00:00", "meta": {"OBJECT_NAME": "STARLINK-35746", "OBJECT_ID": "2025-268AB", "EPOCH": "2025-12-18T13:48:24.873696", "MEAN_MOTION": 15.50591335, "ECCENTRICITY": 0.00027956, "INCLINATION": 43.002, "RA_OF_ASC_NODE": 86.9519, "ARG_OF_PERICENTER": 278.566, "MEAN_ANOMALY": 81.4883, "EPHEMERIS_TYPE": 0, "CLASSIFICATION_TYPE": "U", "NORAD_CAT_ID": 66582, "ELEMENT_SET_NO": 999, "REV_AT_EPOCH": 553, "BSTAR": 0.0012521, "MEAN_MOTION_DOT": 0.00073847, "MEAN_MOTION_DDOT": 0}, "tle": {"line1": "1 66582U 25268AB  25352.57528789  .00073847  00000+0  12521-2 0  9999", "line2": "2 66582  43.0020  86.9519 0002795 278.5660  81.4883 15.50591335  5535"}}, "geometry": {"type": "Point", "coordinates": [-147.3459138801427, 36.25885999937854]}}, {"type": "Feature", "properties": {"norad_id": 66583, "name": "STARLINK-35941", "group": "last-30-days", "lat": 35.42563574947137, "lon": -145.20137003893907, "alt_km": 411.36413162487133, "timestamp": "2025-12-18T23:35:47.780497+00:00", "meta": {"OBJECT_NAME": "STARLINK-35941", "OBJECT_ID": "2025-268AC", "EPOCH": "2025-12-18T13:47:55.292064", "MEAN_MOTION": 15.5059531, "ECCENTRICITY": 0.00036374, "INCLINATION": 42.9999, "RA_OF_ASC_NODE": 86.949, "ARG_OF_PERICENTER": 277.8009, "MEAN_ANOMALY": 82.2438, "EPHEMERIS_TYPE": 0, "CLASSIFICATION_TYPE": "U", "NORAD_CAT_ID": 66583, "ELEMENT_SET_NO": 999, "REV_AT_EPOCH": 553, "BSTAR": 0.0019257968, "MEAN_MOTION_DOT": 0.00114384, "MEAN_MOTION_DDOT": 0}, "tle": {"line1": "1 66583U 25268AC  25352.57494551  .00114384  00000+0  19258-2 0  9995", "line2": "2 66583  42.9999  86.9490 0003637 277.8009  82.2438 15.50595310  5534"}}, "geometry": {"type": "Point", "coordinates": [-145.20137003893907, 35.42563574947137]}}, {"type": "Feature", "properties": {"norad_id": 66584, "name": "STARLINK-35939", "group": "last-30-days", "lat": 34.54313192922335, "lon": -143.0709006008301, "alt_km": 410.53404077103005, "timestamp": "2025-12-18T23:35:47.780510+00:00", "meta": {"OBJECT_NAME": "STARLINK-35939", "OBJECT_ID": "2025-268AD", "EPOCH": "2025-12-18T13:47:25.569600", "MEAN_MOTION": 15.50609081, "ECCENTRICITY": 0.00021101, "INCLINATION": 42.9997, "RA_OF_ASC_NODE": 86.9444, "ARG_OF_PERICENTER": 279.7649, "MEAN_ANOMALY": 80.2973, "EPHEMERIS_TYPE": 0, "CLASSIFICATION_TYPE": "U", "NORAD_CAT_ID": 66584, "ELEMENT_SET_NO": 999, "REV_AT_EPOCH": 553, "BSTAR": 0.0016835386, "MEAN_MOTION_DOT": 0.00099801, "MEAN_MOTION_DDOT": 0}, "tle": {"line1": "1 66584U 25268AD  25352.57460150  .00099801  00000+0  16835-2 0  9998", "line2": "2 66584  42.9997  86.9444 0002110 279.7649  80.2973 15.50609081  5531"}}, "geometry": {"type": "Point", "coordinates": [-143.0709006008301, 34.54313192922335]}}, {"type": "Feature", "properties": {"norad_id": 66585, "name": "STARLINK-35963", "group": "last-30-days", "lat": 33.645463833531714, "lon": -141.03105266227138, "alt_km": 410.3438398979997, "timestamp": "2025-12-18T23:35:47.780520+00:00", "meta": {"OBJECT_NAME": "STARLINK-35963", "OBJECT_ID": "2025-268AE", "EPOCH": "2025-12-18T13:46:55.921440", "MEAN_MOTION": 15.50604061, "ECCENTRICITY": 0.00016316, "INCLINATION": 42.9994, "RA_OF_ASC_NODE": 86.9421, "ARG_OF_PERICENTER": 274.8944, "MEAN_ANOMALY": 85.173, "EPHEMERIS_TYPE": 0, "CLASSIFICATION_TYPE": "U", "NORAD_CAT_ID": 66585, "ELEMENT_SET_NO": 999, "REV_AT_EPOCH": 553, "BSTAR": 0.0016267314, "MEAN_MOTION_DOT": 0.0009636, "MEAN_MOTION_DDOT": 0}, "tle": {"line1": "1 66585U 25268AE  25352.57425835  .00096360  00000+0  16267-2 0  9996", "line2": "2 66585  42.9994  86.9421 0001631 274.8944  85.1730 15.50604061  5533"}}, "geometry": {"type": "Point", "coordinates": [-141.03105266227138, 33.645463833531714]}}, {"type": "Feature", "properties": {"norad_id": 66586, "name": "TJS-21", "group": "last-30-days", "lat": 61.61328367157186, "lon": -87.22698577660515, "alt_km": 36823.78806143645, "timestamp": "2025-12-18T23:35:47.780533+00:00", "meta": {"OBJECT_NAME": "TJS-21", "OBJECT_ID": "2025-269A", "EPOCH": "2025-12-15T05:12:47.484864", "MEAN_MOTION": 2.00575027, "ECCENTRICITY": 0.68062948, "INCLINATION": 63.2717, "RA_OF_ASC_NODE": 162.0883, "ARG_OF_PERICENTER": 269.7594, "MEAN_ANOMALY": 18.6638, "EPHEMERIS_TYPE": 0, "CLASSIFICATION_TYPE": "U", "NORAD_CAT_ID": 66586, "ELEMENT_SET_NO": 999, "REV_AT_EPOCH": 48, "BSTAR": -0.049388688, "MEAN_MOTION_DOT": 1.099e-05, "MEAN_MOTION_DDOT": 0}, "tle": {"line1": "1 66586U 25269A   25349.21721626  .00001099  00000+0 -49389-1 0  9998", "line2": "2 66586  63.2717 162.0883 6806294 269.7594  18.6638  2.00575027   486"}}, "geometry": {"type": "Point", "coordinates": [-87.22698577660515, 61.61328367157186]}}, {"type": "Feature", "properties": {"norad_id": 66587, "name": "CZ-3B R/B", "group": "last-30-days", "lat": 47.31342280356184, "lon": -131.4334805960137, "alt_km": 32143.940754093248, "timestamp": "2025-12-18T23:35:47.780547+00:00", "meta": {"OBJECT_NAME": "CZ-3B R/B", "OBJECT_ID": "2025-269B", "EPOCH": "2025-12-17T04:50:14.865216", "MEAN_MOTION": 2.03937792, "ECCENTRICITY": 0.75168551, "INCLINATION": 51.3435, "RA_OF_ASC_NODE": 168.6023, "ARG_OF_PERICENTER": 229.5038, "MEAN_ANOMALY": 36.3416, "EPHEMERIS_TYPE": 0, "CLASSIFICATION_TYPE": "U", "NORAD_CAT_ID": 66587, "ELEMENT_SET_NO": 999, "REV_AT_EPOCH": 54, "BSTAR": 0.00055683527, "MEAN_MOTION_DOT": 0.00072738, "MEAN_MOTION_DDOT": -9.18653e-07}, "tle": {"line1": "1 66587U 25269B   25351.20156094  .00072738 -91865-6  55684-3 0  9993", "line2": "2 66587  51.3435 168.6023 7516855 229.5038  36.3416  2.03937792   541"}}, "geometry": {"type": "Point", "coordinates": [-131.4334805960137, 47.31342280356184]}}, {"type": "Feature", "properties": {"norad_id": 66588, "name": "STARLINK-36076", "group": "last-30-days", "lat": 34.94145285119819, "lon": -71.77451115115603, "alt_km": 439.2966399174602, "timestamp": "2025-12-18T23:35:47.780560+00:00", "meta": {"OBJECT_NAME": "STARLINK-36076", "OBJECT_ID": "2025-270A", "EPOCH": "2025-12-18T13:43:51.692448", "MEAN_MOTION": 15.40726, "ECCENTRICITY": 0.0002099, "INCLINATION": 42.9983, "RA_OF_ASC_NODE": 159.1703, "ARG_OF_PERICENTER": 253.8213, "MEAN_ANOMALY": 106.2412, "EPHEMERIS_TYPE": 0, "CLASSIFICATION_TYPE": "U", "NORAD_CAT_ID": 66588, "ELEMENT_SET_NO": 999, "REV_AT_EPOCH": 524, "BSTAR": 0.00091004286, "MEAN_MOTION_DOT": 0.00037934, "MEAN_MOTION_DDOT": 0}, "tle": {"line1": "1 66588U 25270A   25352.57212607  .00037934  00000+0  91004-3 0  9998", "line2": "2 66588  42.9983 159.1703 0002099 253.8213 106.2412 15.40726000  5242"}}, "geometry": {"type": "Point", "coordinates": [-71.77451115115603, 34.94145285119819]}}, {"type": "Feature", "properties": {"norad_id": 66589, "name": "STARLINK-35447", "group": "last-30-days", "lat": -27.289807146938095, "lon": 10.180830568295844, "alt_km": 446.22076933483913, "timestamp": "2025-12-18T23:35:47.780571+00:00", "meta": {"OBJECT_NAME": "STARLINK-35447", "OBJECT_ID": "2025-270B", "EPOCH": "2025-12-18T16:00:00.999936", "MEAN_MOTION": 15.40713528, "ECCENTRICITY": 0.00014415, "INCLINATION": 42.9989, "RA_OF_ASC_NODE": 158.3866, "ARG_OF_PERICENTER": 292.9295, "MEAN_ANOMALY": 331.6293, "EPHEMERIS_TYPE": 0, "CLASSIFICATION_TYPE": "U", "NORAD_CAT_ID": 66589, "ELEMENT_SET_NO": 999, "REV_AT_EPOCH": 546, "BSTAR": 0.00020499971, "MEAN_MOTION_DOT": 8.273e-05, "MEAN_MOTION_DDOT": 0}, "tle": {"line1": "1 66589U 25270B   25352.66667824  .00008273  00000+0  20500-3 0  9991", "line2": "2 66589  42.9989 158.3866 0001441 292.9295 331.6293 15.40713528  5460"}}, "geometry": {"type": "Point", "coordinates": [10.180830568295844, -27.289807146938095]}}]}